[{"OBJECT_NAME":"TEVEL2-3","OBJECT_ID":"2025-052J","EPOCH":"2026-03-05T15:45:32.419008","MEAN_MOTION":15.30181453,"ECCENTRICITY":0.0004533,"INCLINATION":97.4005,"RA_OF_ASC_NODE":320.8037,"ARG_OF_PERICENTER":113.7854,"MEAN_ANOMALY":246.3862,"EPHEMERIS_TYPE":0,"CLASSIFICATION_TYPE":"U","NORAD_CAT_ID":63218,"ELEMENT_SET_NO":999,"REV_AT_EPOCH":5424,"BSTAR":0.00082983,"MEAN_MOTION_DOT":0.00024215,"MEAN_MOTION_DDOT":0},{"OBJECT_NAME":"TEVEL2-2","OBJECT_ID":"2025-052K","EPOCH":"2026-03-05T15:49:51.160224","MEAN_MOTION":15.30148657,"ECCENTRICITY":0.000447,"INCLINATION":97.4001,"RA_OF_ASC_NODE":320.7961,"ARG_OF_PERICENTER":113.3968,"MEAN_ANOMALY":246.7743,"EPHEMERIS_TYPE":0,"CLASSIFICATION_TYPE":"U","NORAD_CAT_ID":63219,"ELEMENT_SET_NO":999,"REV_AT_EPOCH":5424,"BSTAR":0.000829,"MEAN_MOTION_DOT":0.00024166,"MEAN_MOTION_DDOT":0},{"OBJECT_NAME":"TEVEL2-9","OBJECT_ID":"2025-052AD","EPOCH":"2026-03-05T15:26:40.293024","MEAN_MOTION":15.28448937,"ECCENTRICITY":0.0007828,"INCLINATION":97.4065,"RA_OF_ASC_NODE":320.3569,"ARG_OF_PERICENTER":136.672,"MEAN_ANOMALY":223.5137,"EPHEMERIS_TYPE":0,"CLASSIFICATION_TYPE":"U","NORAD_CAT_ID":63237,"ELEMENT_SET_NO":999,"REV_AT_EPOCH":5419,"BSTAR":0.00078872,"MEAN_MOTION_DOT":0.00021825,"MEAN_MOTION_DDOT":0},{"OBJECT_NAME":"TEVEL2-7","OBJECT_ID":"2025-052AE","EPOCH":"2026-03-05T16:00:51.252768","MEAN_MOTION":15.2823751,"ECCENTRICITY":0.000781,"INCLINATION":97.406,"RA_OF_ASC_NODE":320.3342,"ARG_OF_PERICENTER":135.4913,"MEAN_ANOMALY":224.6956,"EPHEMERIS_TYPE":0,"CLASSIFICATION_TYPE":"U","NORAD_CAT_ID":63238,"ELEMENT_SET_NO":999,"REV_AT_EPOCH":5419,"BSTAR":0.00082266,"MEAN_MOTION_DOT":0.00022624,"MEAN_MOTION_DDOT":0},{"OBJECT_NAME":"TEVEL2-8","OBJECT_ID":"2025-052AF","EPOCH":"2026-03-05T16:10:52.917312","MEAN_MOTION":15.28213521,"ECCENTRICITY":0.0007692,"INCLINATION":97.4062,"RA_OF_ASC_NODE":320.3214,"ARG_OF_PERICENTER":136.886,"MEAN_ANOMALY":223.2983,"EPHEMERIS_TYPE":0,"CLASSIFICATION_TYPE":"U","NORAD_CAT_ID":63239,"ELEMENT_SET_NO":999,"REV_AT_EPOCH":5419,"BSTAR":0.00078135,"MEAN_MOTION_DOT":0.00021464,"MEAN_MOTION_DDOT":0},{"OBJECT_NAME":"HADES-ICM","OBJECT_ID":"2025-052BN","EPOCH":"2026-03-05T15:31:17.877216","MEAN_MOTION":15.55555606,"ECCENTRICITY":0.0008699,"INCLINATION":97.3958,"RA_OF_ASC_NODE":324.9512,"ARG_OF_PERICENTER":119.4028,"MEAN_ANOMALY":240.8096,"EPHEMERIS_TYPE":0,"CLASSIFICATION_TYPE":"U","NORAD_CAT_ID":63492,"ELEMENT_SET_NO":999,"REV_AT_EPOCH":5451,"BSTAR":0.0020358,"MEAN_MOTION_DOT":0.00141647,"MEAN_MOTION_DDOT":0},{"OBJECT_NAME":"INNOSAT 16 (RS92S7)","OBJECT_ID":"2025-155C","EPOCH":"2026-03-05T18:39:32.752224","MEAN_MOTION":15.24106213,"ECCENTRICITY":0.0010511,"INCLINATION":97.4462,"RA_OF_ASC_NODE":32.402,"ARG_OF_PERICENTER":178.7996,"MEAN_ANOMALY":181.3268,"EPHEMERIS_TYPE":0,"CLASSIFICATION_TYPE":"U","NORAD_CAT_ID":64878,"ELEMENT_SET_NO":999,"REV_AT_EPOCH":6491,"BSTAR":0.0004061,"MEAN_MOTION_DOT":9.815e-5,"MEAN_MOTION_DDOT":0},{"OBJECT_NAME":"GEOSCAN 6 (RS92S6)","OBJECT_ID":"2025-155D","EPOCH":"2026-03-05T18:51:20.384640","MEAN_MOTION":15.27852595,"ECCENTRICITY":0.0008163,"INCLINATION":97.4462,"RA_OF_ASC_NODE":33.1715,"ARG_OF_PERICENTER":167.0478,"MEAN_ANOMALY":193.0972,"EPHEMERIS_TYPE":0,"CLASSIFICATION_TYPE":"U","NORAD_CAT_ID":64879,"ELEMENT_SET_NO":999,"REV_AT_EPOCH":6496,"BSTAR":0.00059446,"MEAN_MOTION_DOT":0.00016124,"MEAN_MOTION_DDOT":0},{"OBJECT_NAME":"GEOSCAN 1 (RS92S1)","OBJECT_ID":"2025-155E","EPOCH":"2026-03-05T18:10:08.008032","MEAN_MOTION":15.28265362,"ECCENTRICITY":0.0008115,"INCLINATION":97.446,"RA_OF_ASC_NODE":33.2143,"ARG_OF_PERICENTER":166.9142,"MEAN_ANOMALY":193.231,"EPHEMERIS_TYPE":0,"CLASSIFICATION_TYPE":"U","NORAD_CAT_ID":64880,"ELEMENT_SET_NO":999,"REV_AT_EPOCH":6496,"BSTAR":0.00057535,"MEAN_MOTION_DOT":0.000158,"MEAN_MOTION_DDOT":0},{"OBJECT_NAME":"239ALFEROV (RS61S)","OBJECT_ID":"2025-155F","EPOCH":"2026-03-05T18:52:42.303072","MEAN_MOTION":15.29750882,"ECCENTRICITY":0.0007806,"INCLINATION":97.4467,"RA_OF_ASC_NODE":33.5085,"ARG_OF_PERICENTER":164.5014,"MEAN_ANOMALY":195.6467,"EPHEMERIS_TYPE":0,"CLASSIFICATION_TYPE":"U","NORAD_CAT_ID":64881,"ELEMENT_SET_NO":999,"REV_AT_EPOCH":6498,"BSTAR":0.00074411,"MEAN_MOTION_DOT":0.00021423,"MEAN_MOTION_DDOT":0},{"OBJECT_NAME":"GEOSCAN 2 (RS92S2)","OBJECT_ID":"2025-155Q","EPOCH":"2026-03-05T18:29:02.154048","MEAN_MOTION":15.28567746,"ECCENTRICITY":0.0008032,"INCLINATION":97.4459,"RA_OF_ASC_NODE":33.3363,"ARG_OF_PERICENTER":153.5191,"MEAN_ANOMALY":206.6461,"EPHEMERIS_TYPE":0,"CLASSIFICATION_TYPE":"U","NORAD_CAT_ID":64890,"ELEMENT_SET_NO":999,"REV_AT_EPOCH":6497,"BSTAR":0.00059183,"MEAN_MOTION_DOT":0.00016406,"MEAN_MOTION_DDOT":0},{"OBJECT_NAME":"GEOSCAN 5 (RS92S5)","OBJECT_ID":"2025-155R","EPOCH":"2026-03-05T17:34:23.075328","MEAN_MOTION":15.30080744,"ECCENTRICITY":0.0006434,"INCLINATION":97.4458,"RA_OF_ASC_NODE":33.5505,"ARG_OF_PERICENTER":167.5351,"MEAN_ANOMALY":192.605,"EPHEMERIS_TYPE":0,"CLASSIFICATION_TYPE":"U","NORAD_CAT_ID":64891,"ELEMENT_SET_NO":999,"REV_AT_EPOCH":6498,"BSTAR":0.00075051,"MEAN_MOTION_DOT":0.00021824,"MEAN_MOTION_DDOT":0},{"OBJECT_NAME":"GEOSCAN 4 (RS92S4)","OBJECT_ID":"2025-155S","EPOCH":"2026-03-05T17:23:48.031008","MEAN_MOTION":15.30183043,"ECCENTRICITY":0.0006416,"INCLINATION":97.4462,"RA_OF_ASC_NODE":33.5668,"ARG_OF_PERICENTER":167.9194,"MEAN_ANOMALY":192.2201,"EPHEMERIS_TYPE":0,"CLASSIFICATION_TYPE":"U","NORAD_CAT_ID":64892,"ELEMENT_SET_NO":999,"REV_AT_EPOCH":6498,"BSTAR":0.00073367,"MEAN_MOTION_DOT":0.00021399,"MEAN_MOTION_DDOT":0},{"OBJECT_NAME":"GEOSCAN 3 (RS92S3)","OBJECT_ID":"2025-155T","EPOCH":"2026-03-05T18:30:59.806656","MEAN_MOTION":15.31475648,"ECCENTRICITY":0.000611,"INCLINATION":97.4454,"RA_OF_ASC_NODE":33.797,"ARG_OF_PERICENTER":166.7771,"MEAN_ANOMALY":193.3631,"EPHEMERIS_TYPE":0,"CLASSIFICATION_TYPE":"U","NORAD_CAT_ID":64893,"ELEMENT_SET_NO":999,"REV_AT_EPOCH":6500,"BSTAR":0.00085736,"MEAN_MOTION_DOT":0.00026056,"MEAN_MOTION_DDOT":0},{"OBJECT_NAME":"INNOSAT 3 (RS92S0)","OBJECT_ID":"2025-155U","EPOCH":"2026-03-05T16:28:55.757280","MEAN_MOTION":15.3632058,"ECCENTRICITY":0.0005728,"INCLINATION":97.4423,"RA_OF_ASC_NODE":34.3326,"ARG_OF_PERICENTER":157.4581,"MEAN_ANOMALY":202.6915,"EPHEMERIS_TYPE":0,"CLASSIFICATION_TYPE":"U","NORAD_CAT_ID":64894,"ELEMENT_SET_NO":999,"REV_AT_EPOCH":6503,"BSTAR":0.0011837,"MEAN_MOTION_DOT":0.00042038,"MEAN_MOTION_DDOT":0}]
