TEVEL2-3                
1 63218U 25052J   26064.65662522  .00024215  00000+0  82983-3 0  9992
2 63218  97.4005 320.8037 0004533 113.7854 246.3862 15.30181453 54241
TEVEL2-2                
1 63219U 25052K   26064.65961991  .00024166  00000+0  82900-3 0  9999
2 63219  97.4001 320.7961 0004470 113.3968 246.7743 15.30148657 54246
TEVEL2-9                
1 63237U 25052AD  26064.64352191  .00021825  00000+0  78872-3 0  9996
2 63237  97.4065 320.3569 0007828 136.6720 223.5137 15.28448937 54195
TEVEL2-7                
1 63238U 25052AE  26064.66725987  .00022624  00000+0  82266-3 0  9996
2 63238  97.4060 320.3342 0007810 135.4913 224.6956 15.28237510 54196
TEVEL2-8                
1 63239U 25052AF  26064.67422358  .00021464  00000+0  78135-3 0  9995
2 63239  97.4062 320.3214 0007692 136.8860 223.2983 15.28213521 54192
HADES-ICM               
1 63492U 25052BN  26064.64673469  .00141647  00000+0  20358-2 0  9993
2 63492  97.3958 324.9512 0008699 119.4028 240.8096 15.55555606 54517
INNOSAT 16 (RS92S7)     
1 64878U 25155C   26064.77746241  .00009815  00000+0  40610-3 0  9993
2 64878  97.4462  32.4020 0010511 178.7996 181.3268 15.24106213 64917
GEOSCAN 6 (RS92S6)      
1 64879U 25155D   26064.78565260  .00016124  00000+0  59446-3 0  9993
2 64879  97.4462  33.1715 0008163 167.0478 193.0972 15.27852595 64964
GEOSCAN 1 (RS92S1)      
1 64880U 25155E   26064.75703713  .00015800  00000+0  57535-3 0  9996
2 64880  97.4460  33.2143 0008115 166.9142 193.2310 15.28265362 64962
239ALFEROV (RS61S)      
1 64881U 25155F   26064.78660073  .00021423  00000+0  74411-3 0  9991
2 64881  97.4467  33.5085 0007806 164.5014 195.6467 15.29750882 64984
GEOSCAN 2 (RS92S2)      
1 64890U 25155Q   26064.77016382  .00016406  00000+0  59183-3 0  9992
2 64890  97.4459  33.3363 0008032 153.5191 206.6461 15.28567746 64978
GEOSCAN 5 (RS92S5)      
1 64891U 25155R   26064.73221152  .00021824  00000+0  75051-3 0  9994
2 64891  97.4458  33.5505 0006434 167.5351 192.6050 15.30080744 64985
GEOSCAN 4 (RS92S4)      
1 64892U 25155S   26064.72486147  .00021399  00000+0  73367-3 0  9996
2 64892  97.4462  33.5668 0006416 167.9194 192.2201 15.30183043 64980
GEOSCAN 3 (RS92S3)      
1 64893U 25155T   26064.77152554  .00026056  00000+0  85736-3 0  9992
2 64893  97.4454  33.7970 0006110 166.7771 193.3631 15.31475648 65008
INNOSAT 3 (RS92S0)      
1 64894U 25155U   26064.68675645  .00042038  00000+0  11837-2 0  9992
2 64894  97.4423  34.3326 0005728 157.4581 202.6915 15.36320580 65038
